{
  "type": "FeatureCollection",
  "features": [
    {
      "type": "Feature",
      "properties": {
        "norad_id": 33376,
        "name": "GALAXY 19 (G-19)",
        "group": "intelsat",
        "lat": 0.00558352952028084,
        "lon": -51.71796793757413,
        "alt_km": 35775.94639466127,
        "timestamp": "2025-12-25T20:42:38.354833+00:00",
        "meta_object_name": "GALAXY 19 (G-19)",
        "meta_object_id": "2008-045A",
        "meta_epoch": "2025-12-25T02:40:40.473984",
        "meta_mean_motion": 1.00272049,
        "meta_eccentricity": 0.00026988,
        "meta_inclination": 0.0416,
        "meta_ra_of_asc_node": 264.7487,
        "meta_arg_of_pericenter": 15.5414,
        "meta_mean_anomaly": 116.7517,
        "meta_ephemeris_type": 0,
        "meta_classification_type": "U",
        "meta_norad_cat_id": 33376,
        "meta_element_set_no": 999,
        "meta_rev_at_epoch": 6315,
        "meta_bstar": 0,
        "meta_mean_motion_dot": -1.18e-06,
        "meta_mean_motion_ddot": 0,
        "tle_line1": "1 33376U 08045A   25359.11157956 -.00000118  00000+0  00000+0 0  9997",
        "tle_line2": "2 33376   0.0416 264.7487 0002698  15.5414 116.7517  1.00272049 63156"
      },
      "geometry": {
        "type": "Point",
        "coordinates": [
          -51.71796793757413,
          0.00558352952028084
        ]
      }
    },
    {
      "type": "Feature",
      "properties": {
        "norad_id": 35493,
        "name": "FM-5",
        "group": "intelsat",
        "lat": -0.005073114843773529,
        "lon": -40.87918185333309,
        "alt_km": 35790.044074621124,
        "timestamp": "2025-12-25T20:42:38.354845+00:00",
        "meta_object_name": "FM-5",
        "meta_object_id": "2009-034A",
        "meta_epoch": "2025-12-25T03:12:43.263648",
        "meta_mean_motion": 1.00269775,
        "meta_eccentricity": 8.51e-05,
        "meta_inclination": 0.0175,
        "meta_ra_of_asc_node": 297.305,
        "meta_arg_of_pericenter": 222.6055,
        "meta_mean_anomaly": 256.0209,
        "meta_ephemeris_type": 0,
        "meta_classification_type": "U",
        "meta_norad_cat_id": 35493,
        "meta_element_set_no": 999,
        "meta_rev_at_epoch": 4489,
        "meta_bstar": 0,
        "meta_mean_motion_dot": -1.79e-06,
        "meta_mean_motion_ddot": 0,
        "tle_line1": "1 35493U 09034A   25359.13383407 -.00000179  00000+0  00000+0 0  9999",
        "tle_line2": "2 35493   0.0175 297.3050 0000851 222.6055 256.0209  1.00269775 44897"
      },
      "geometry": {
        "type": "Point",
        "coordinates": [
          -40.87918185333309,
          -0.005073114843773529
        ]
      }
    },
    {
      "type": "Feature",
      "properties": {
        "norad_id": 36097,
        "name": "INTELSAT 14 (IS-14)",
        "group": "intelsat",
        "lat": -0.006667004044261782,
        "lon": 0.27186992810671873,
        "alt_km": 35784.00280910013,
        "timestamp": "2025-12-25T20:42:38.354857+00:00",
        "meta_object_name": "INTELSAT 14 (IS-14)",
        "meta_object_id": "2009-064A",
        "meta_epoch": "2025-12-24T11:10:22.140192",
        "meta_mean_motion": 1.00269035,
        "meta_eccentricity": 0.0002637,
        "meta_inclination": 0.013,
        "meta_ra_of_asc_node": 11.8022,
        "meta_arg_of_pericenter": 274.0942,
        "meta_mean_anomaly": 289.9229,
        "meta_ephemeris_type": 0,
        "meta_classification_type": "U",
        "meta_norad_cat_id": 36097,
        "meta_element_set_no": 999,
        "meta_rev_at_epoch": 5885,
        "meta_bstar": 0,
        "meta_mean_motion_dot": -2.53e-06,
        "meta_mean_motion_ddot": 0,
        "tle_line1": "1 36097U 09064A   25358.46553403 -.00000253  00000+0  00000+0 0  9996",
        "tle_line2": "2 36097   0.0130  11.8022 0002637 274.0942 289.9229  1.00269035 58854"
      },
      "geometry": {
        "type": "Point",
        "coordinates": [
          0.27186992810671873,
          -0.006667004044261782
        ]
      }
    },
    {
      "type": "Feature",
      "properties": {
        "norad_id": 36106,
        "name": "INTELSAT 15 (IS-15)",
        "group": "intelsat",
        "lat": 0.02962277051405338,
        "lon": 130.41246900956216,
        "alt_km": 35795.528266134,
        "timestamp": "2025-12-25T20:42:38.354868+00:00",
        "meta_object_name": "INTELSAT 15 (IS-15)",
        "meta_object_id": "2009-067A",
        "meta_epoch": "2025-12-24T23:46:32.224800",
        "meta_mean_motion": 1.00270584,
        "meta_eccentricity": 0.0002352,
        "meta_inclination": 0.0114,
        "meta_ra_of_asc_node": 42.1591,
        "meta_arg_of_pericenter": 243.8824,
        "meta_mean_anomaly": 249.5075,
        "meta_ephemeris_type": 0,
        "meta_classification_type": "U",
        "meta_norad_cat_id": 36106,
        "meta_element_set_no": 999,
        "meta_rev_at_epoch": 3948,
        "meta_bstar": 0,
        "meta_mean_motion_dot": -1.64e-06,
        "meta_mean_motion_ddot": 0,
        "tle_line1": "1 36106U 09067A   25358.99065075 -.00000164  00000+0  00000+0 0  9992",
        "tle_line2": "2 36106   0.0114  42.1591 0002352 243.8824 249.5075  1.00270584 39482"
      },
      "geometry": {
        "type": "Point",
        "coordinates": [
          130.41246900956216,
          0.02962277051405338
        ]
      }
    },
    {
      "type": "Feature",
      "properties": {
        "norad_id": 36131,
        "name": "DIRECTV 12",
        "group": "intelsat",
        "lat": -0.01428925076691686,
        "lon": -57.43006601994262,
        "alt_km": 35783.082159373225,
        "timestamp": "2025-12-25T20:42:38.354880+00:00",
        "meta_object_name": "DIRECTV 12",
        "meta_object_id": "2009-075A",
        "meta_epoch": "2025-12-24T14:19:26.533632",
        "meta_mean_motion": 1.00274235,
        "meta_eccentricity": 5.749e-05,
        "meta_inclination": 0.0184,
        "meta_ra_of_asc_node": 118.0209,
        "meta_arg_of_pericenter": 200.6669,
        "meta_mean_anomaly": 246.8321,
        "meta_ephemeris_type": 0,
        "meta_classification_type": "U",
        "meta_norad_cat_id": 36131,
        "meta_element_set_no": 999,
        "meta_rev_at_epoch": 4480,
        "meta_bstar": 0,
        "meta_mean_motion_dot": -8.3e-07,
        "meta_mean_motion_ddot": 0,
        "tle_line1": "1 36131U 09075A   25358.59683488 -.00000083  00000+0  00000+0 0  9999",
        "tle_line2": "2 36131   0.0184 118.0209 0000574 200.6669 246.8321  1.00274235 44801"
      },
      "geometry": {
        "type": "Point",
        "coordinates": [
          -57.43006601994262,
          -0.01428925076691686
        ]
      }
    },
    {
      "type": "Feature",
      "properties": {
        "norad_id": 36397,
        "name": "INTELSAT 16 (IS-16)",
        "group": "intelsat",
        "lat": -0.012807888957824184,
        "lon": -30.89444868805659,
        "alt_km": 35781.698990660625,
        "timestamp": "2025-12-25T20:42:38.354892+00:00",
        "meta_object_name": "INTELSAT 16 (IS-16)",
        "meta_object_id": "2010-006A",
        "meta_epoch": "2025-12-25T04:32:09.998304",
        "meta_mean_motion": 1.00272308,
        "meta_eccentricity": 0.00019441,
        "meta_inclination": 0.0098,
        "meta_ra_of_asc_node": 346.2974,
        "meta_arg_of_pericenter": 284.2377,
        "meta_mean_anomaly": 175.2747,
        "meta_ephemeris_type": 0,
        "meta_classification_type": "U",
        "meta_norad_cat_id": 36397,
        "meta_element_set_no": 999,
        "meta_rev_at_epoch": 5791,
        "meta_bstar": 0,
        "meta_mean_motion_dot": -2.23e-06,
        "meta_mean_motion_ddot": 0,
        "tle_line1": "1 36397U 10006A   25359.18900461 -.00000223  00000+0  00000+0 0  9994",
        "tle_line2": "2 36397   0.0098 346.2974 0001944 284.2377 175.2747  1.00272308 57911"
      },
      "geometry": {
        "type": "Point",
        "coordinates": [
          -30.89444868805659,
          -0.012807888957824184
        ]
      }
    },
    {
      "type": "Feature",
      "properties": {
        "norad_id": 37185,
        "name": "XM-5",
        "group": "intelsat",
        "lat": 0.0006370885293542974,
        "lon": -69.91692968966477,
        "alt_km": 35792.362408702174,
        "timestamp": "2025-12-25T20:42:38.354904+00:00",
        "meta_object_name": "XM-5",
        "meta_object_id": "2010-053A",
        "meta_epoch": "2025-12-25T06:10:38.820000",
        "meta_mean_motion": 1.00271481,
        "meta_eccentricity": 0.00018748,
        "meta_inclination": 0.0643,
        "meta_ra_of_asc_node": 269.8074,
        "meta_arg_of_pericenter": 238.5396,
        "meta_mean_anomaly": 283.1353,
        "meta_ephemeris_type": 0,
        "meta_classification_type": "U",
        "meta_norad_cat_id": 37185,
        "meta_element_set_no": 999,
        "meta_rev_at_epoch": 5573,
        "meta_bstar": 0,
        "meta_mean_motion_dot": -2e-08,
        "meta_mean_motion_ddot": 0,
        "tle_line1": "1 37185U 10053A   25359.25739375 -.00000002  00000+0  00000+0 0  9999",
        "tle_line2": "2 37185   0.0643 269.8074 0001874 238.5396 283.1353  1.00271481 55730"
      },
      "geometry": {
        "type": "Point",
        "coordinates": [
          -69.91692968966477,
          0.0006370885293542974
        ]
      }
    }
  ]
}